{
  "type": "FeatureCollection",
  "features": [
    {
      "type": "Feature",
      "properties": {
        "norad_id": 43602,
        "name": "BEIDOU-3 M12 (C26)",
        "group": "beidou",
        "lat": 52.993352703877655,
        "lon": -99.11881318238683,
        "alt_km": 21502.319364187064,
        "timestamp": "2025-12-09T11:33:55.065004+00:00",
        "meta_object_name": "BEIDOU-3 M12 (C26)",
        "meta_object_id": "2018-067A",
        "meta_epoch": "2025-12-07T18:02:34.116000",
        "meta_mean_motion": 1.86227677,
        "meta_eccentricity": 0.00091651,
        "meta_inclination": 54.1832,
        "meta_ra_of_asc_node": 187.5325,
        "meta_arg_of_pericenter": 40.8071,
        "meta_mean_anomaly": 319.3279,
        "meta_ephemeris_type": 0,
        "meta_classification_type": "U",
        "meta_norad_cat_id": 43602,
        "meta_element_set_no": 999,
        "meta_rev_at_epoch": 4955,
        "meta_bstar": 0,
        "meta_mean_motion_dot": 5.6e-07,
        "meta_mean_motion_ddot": 0,
        "tle_line1": "1 43602U 18067A   25341.75178375  .00000056  00000+0  00000+0 0  9994",
        "tle_line2": "2 43602  54.1832 187.5325 0009165  40.8071 319.3279  1.86227677 49555"
      },
      "geometry": {
        "type": "Point",
        "coordinates": [
          -99.11881318238683,
          52.993352703877655
        ]
      }
    },
    {
      "type": "Feature",
      "properties": {
        "norad_id": 43603,
        "name": "BEIDOU-3 M11 (C25)",
        "group": "beidou",
        "lat": -8.285713050893328,
        "lon": -178.59488788219832,
        "alt_km": 21519.113657294787,
        "timestamp": "2025-12-09T11:33:55.065015+00:00",
        "meta_object_name": "BEIDOU-3 M11 (C25)",
        "meta_object_id": "2018-067B",
        "meta_epoch": "2025-12-07T08:23:01.607424",
        "meta_mean_motion": 1.86227152,
        "meta_eccentricity": 0.0005581,
        "meta_inclination": 54.1802,
        "meta_ra_of_asc_node": 187.5102,
        "meta_arg_of_pericenter": 36.6822,
        "meta_mean_anomaly": 323.425,
        "meta_ephemeris_type": 0,
        "meta_classification_type": "U",
        "meta_norad_cat_id": 43603,
        "meta_element_set_no": 999,
        "meta_rev_at_epoch": 4957,
        "meta_bstar": 0,
        "meta_mean_motion_dot": 6e-07,
        "meta_mean_motion_ddot": 0,
        "tle_line1": "1 43603U 18067B   25341.34932416  .00000060  00000+0  00000+0 0  9999",
        "tle_line2": "2 43603  54.1802 187.5102 0005581  36.6822 323.4250  1.86227152 49576"
      },
      "geometry": {
        "type": "Point",
        "coordinates": [
          -178.59488788219832,
          -8.285713050893328
        ]
      }
    },
    {
      "type": "Feature",
      "properties": {
        "norad_id": 43622,
        "name": "BEIDOU-3 M13 (C32)",
        "group": "beidou",
        "lat": 15.68097842787867,
        "lon": 79.65600295137534,
        "alt_km": 21523.57908543558,
        "timestamp": "2025-12-09T11:33:55.065026+00:00",
        "meta_object_name": "BEIDOU-3 M13 (C32)",
        "meta_object_id": "2018-072A",
        "meta_epoch": "2025-12-08T09:06:52.153056",
        "meta_mean_motion": 1.86230751,
        "meta_eccentricity": 0.00059246,
        "meta_inclination": 56.4552,
        "meta_ra_of_asc_node": 68.9648,
        "meta_arg_of_pericenter": 298.4192,
        "meta_mean_anomaly": 61.5427,
        "meta_ephemeris_type": 0,
        "meta_classification_type": "U",
        "meta_norad_cat_id": 43622,
        "meta_element_set_no": 999,
        "meta_rev_at_epoch": 4910,
        "meta_bstar": 0,
        "meta_mean_motion_dot": -4.5e-07,
        "meta_mean_motion_ddot": 0,
        "tle_line1": "1 43622U 18072A   25342.37977029 -.00000045  00000+0  00000+0 0  9993",
        "tle_line2": "2 43622  56.4552  68.9648 0005924 298.4192  61.5427  1.86230751 49104"
      },
      "geometry": {
        "type": "Point",
        "coordinates": [
          79.65600295137534,
          15.68097842787867
        ]
      }
    },
    {
      "type": "Feature",
      "properties": {
        "norad_id": 43623,
        "name": "BEIDOU-3 M14 (C33)",
        "group": "beidou",
        "lat": 51.95833799429164,
        "lon": -168.9123182650731,
        "alt_km": 21528.084127005062,
        "timestamp": "2025-12-09T11:33:55.065043+00:00",
        "meta_object_name": "BEIDOU-3 M14 (C33)",
        "meta_object_id": "2018-072B",
        "meta_epoch": "2025-12-08T18:46:22.315872",
        "meta_mean_motion": 1.86230614,
        "meta_eccentricity": 0.0003183,
        "meta_inclination": 56.4575,
        "meta_ra_of_asc_node": 68.9457,
        "meta_arg_of_pericenter": 336.0436,
        "meta_mean_anomaly": 23.9639,
        "meta_ephemeris_type": 0,
        "meta_classification_type": "U",
        "meta_norad_cat_id": 43623,
        "meta_element_set_no": 999,
        "meta_rev_at_epoch": 4910,
        "meta_bstar": 0,
        "meta_mean_motion_dot": -4.6e-07,
        "meta_mean_motion_ddot": 0,
        "tle_line1": "1 43623U 18072B   25342.78220273 -.00000046  00000+0  00000+0 0  9992",
        "tle_line2": "2 43623  56.4575  68.9457 0003183 336.0436  23.9639  1.86230614 49108"
      },
      "geometry": {
        "type": "Point",
        "coordinates": [
          -168.9123182650731,
          51.95833799429164
        ]
      }
    },
    {
      "type": "Feature",
      "properties": {
        "norad_id": 43647,
        "name": "BEIDOU-3 M16 (C35)",
        "group": "beidou",
        "lat": 2.6531633525959433,
        "lon": -51.47367525634242,
        "alt_km": 21508.765035878707,
        "timestamp": "2025-12-09T11:33:55.065054+00:00",
        "meta_object_name": "BEIDOU-3 M16 (C35)",
        "meta_object_id": "2018-078A",
        "meta_epoch": "2025-12-08T22:33:41.900256",
        "meta_mean_motion": 1.86232214,
        "meta_eccentricity": 0.000711,
        "meta_inclination": 54.2656,
        "meta_ra_of_asc_node": 306.6541,
        "meta_arg_of_pericenter": 18.989,
        "meta_mean_anomaly": 341.0264,
        "meta_ephemeris_type": 0,
        "meta_classification_type": "U",
        "meta_norad_cat_id": 43647,
        "meta_element_set_no": 999,
        "meta_rev_at_epoch": 4861,
        "meta_bstar": 0,
        "meta_mean_motion_dot": -7.5e-07,
        "meta_mean_motion_ddot": 0,
        "tle_line1": "1 43647U 18078A   25342.94006829 -.00000075  00000+0  00000+0 0  9993",
        "tle_line2": "2 43647  54.2656 306.6541 0007110  18.9890 341.0264  1.86232214 48611"
      },
      "geometry": {
        "type": "Point",
        "coordinates": [
          -51.47367525634242,
          2.6531633525959433
        ]
      }
    },
    {
      "type": "Feature",
      "properties": {
        "norad_id": 43648,
        "name": "BEIDOU-3 M15 (C34)",
        "group": "beidou",
        "lat": -53.7357242369428,
        "lon": -132.1419688700292,
        "alt_km": 21535.634873101473,
        "timestamp": "2025-12-09T11:33:55.065066+00:00",
        "meta_object_name": "BEIDOU-3 M15 (C34)",
        "meta_object_id": "2018-078B",
        "meta_epoch": "2025-12-09T01:39:46.574784",
        "meta_mean_motion": 1.86231876,
        "meta_eccentricity": 0.0003594,
        "meta_inclination": 54.2613,
        "meta_ra_of_asc_node": 306.6504,
        "meta_arg_of_pericenter": 17.607,
        "meta_mean_anomaly": 342.3947,
        "meta_ephemeris_type": 0,
        "meta_classification_type": "U",
        "meta_norad_cat_id": 43648,
        "meta_element_set_no": 999,
        "meta_rev_at_epoch": 4863,
        "meta_bstar": 0,
        "meta_mean_motion_dot": -7.5e-07,
        "meta_mean_motion_ddot": 0,
        "tle_line1": "1 43648U 18078B   25343.06928906 -.00000075  00000+0  00000+0 0  9997",
        "tle_line2": "2 43648  54.2613 306.6504 0003594  17.6070 342.3947  1.86231876 48639"
      },
      "geometry": {
        "type": "Point",
        "coordinates": [
          -132.1419688700292,
          -53.7357242369428
        ]
      }
    },
    {
      "type": "Feature",
      "properties": {
        "norad_id": 43683,
        "name": "BEIDOU-3 G1 (C59)",
        "group": "beidou",
        "lat": -2.4428335366389713,
        "lon": 32.02806088021468,
        "alt_km": 35791.58693590476,
        "timestamp": "2025-12-09T11:33:55.065078+00:00",
        "meta_object_name": "BEIDOU-3 G1 (C59)",
        "meta_object_id": "2018-085A",
        "meta_epoch": "2025-12-08T17:41:39.231168",
        "meta_mean_motion": 1.00272068,
        "meta_eccentricity": 0.0001779,
        "meta_inclination": 2.5974,
        "meta_ra_of_asc_node": 103.0581,
        "meta_arg_of_pericenter": 62.9114,
        "meta_mean_anomaly": 317.2543,
        "meta_ephemeris_type": 0,
        "meta_classification_type": "U",
        "meta_norad_cat_id": 43683,
        "meta_element_set_no": 999,
        "meta_rev_at_epoch": 2615,
        "meta_bstar": 0,
        "meta_mean_motion_dot": -2.75e-06,
        "meta_mean_motion_ddot": 0,
        "tle_line1": "1 43683U 18085A   25342.73725962 -.00000275  00000+0  00000+0 0  9996",
        "tle_line2": "2 43683   2.5974 103.0581 0001779  62.9114 317.2543  1.00272068 26153"
      },
      "geometry": {
        "type": "Point",
        "coordinates": [
          32.02806088021468,
          -2.4428335366389713
        ]
      }
    }
  ]
}